H1 CPF  1  MCC 2022  2 22 15  5531 larets
H2  0304206 5557    27944 2022 02 21 23 55 00 2022 02 27 00 07 00   180 1 1  0 0 0
H9
10 0 59633 74580.000000 0      1578290.581      5524959.403      4105782.559
10 0 59633 74760.000000 0      1624814.882      4598605.788      5107010.336
10 0 59633 74940.000000 0      1585826.227      3505156.711      5921438.586
10 0 59633 75120.000000 0      1458966.455      2286725.341      6519500.179
10 0 59633 75300.000000 0      1246213.875       989865.514      6879548.945
10 0 59633 75480.000000 0       953893.737      -336224.791      6988590.212
10 0 59633 75660.000000 0       592493.245     -1641559.790      6842710.129
10 0 59633 75840.000000 0       176285.424     -2877232.745      6447205.911
10 0 59633 76020.000000 0      -277227.616     -3997236.277      5816404.734
10 0 59633 76200.000000 0      -748029.375     -4960170.134      4973174.084
10 0 59633 76380.000000 0     -1214439.337     -5730788.627      3948148.506
10 0 59633 76560.000000 0     -1654076.444     -6281343.799      2778666.760
10 0 59633 76740.000000 0     -2044891.978     -6592647.028      1507436.683
10 0 59633 76920.000000 0     -2366224.842     -6654797.935       180976.071
10 0 59633 77100.000000 0     -2599821.398     -6467536.311     -1152118.025
10 0 59633 77280.000000 0     -2730766.123     -6040193.941     -2442994.132
10 0 59633 77460.000000 0     -2748276.665     -5391246.168     -3644384.526
10 0 59633 77640.000000 0     -2646318.882     -4547483.957     -4712373.355
10 0 59633 77820.000000 0     -2424009.752     -3542856.328     -5608010.836
10 0 59633 78000.000000 0     -2085795.097     -2417054.221     -6298714.343
10 0 59633 78180.000000 0     -1641396.471     -1213903.437     -6759415.987
10 0 59633 78360.000000 0     -1105530.332        20362.276     -6973422.271
10 0 59633 78540.000000 0      -497417.403      1238874.573     -6932972.624
10 0 59633 78720.000000 0       159903.250      2395890.658     -6639499.046
10 0 59633 78900.000000 0       840433.778      3448492.396     -6103586.094
10 0 59633 79080.000000 0      1516232.090      4358178.395     -5344626.043
10 0 59633 79260.000000 0      2158545.132      5092291.738     -4390166.313
10 0 59633 79440.000000 0      2739022.230      5625236.259     -3274960.070
10 0 59633 79620.000000 0      3230958.820      5939425.533     -2039733.786
10 0 59633 79800.000000 0      3610516.021      6025918.008      -729707.178
10 0 59633 79980.000000 0      3857851.371      5884697.875       607087.014
10 0 59633 80160.000000 0      3958097.446      5524578.888      1921610.216
10 0 59633 80340.000000 0      3902138.490      4962736.425      3165667.172
10 0 59633 80520.000000 0      3687142.653      4223894.103      4293720.088
10 0 59633 80700.000000 0      3316822.907      3339204.450      5264579.029
10 0 59633 80880.000000 0      2801414.136      2344895.281      6042903.781
10 0 59633 81060.000000 0      2157376.421      1280747.809      6600453.046
10 0 59633 81240.000000 0      1406849.502       188484.815      6917056.905
10 0 59633 81420.000000 0       576875.559      -889863.039      6981294.099
10 0 59633 81600.000000 0      -301577.523     -1913560.114      6790872.281
10 0 59633 81780.000000 0     -1194764.744     -2844691.118      6352699.118
10 0 59633 81960.000000 0     -2067443.698     -3649554.685      5682643.448
10 0 59633 82140.000000 0     -2884245.579     -4299885.373      4805003.933
10 0 59633 82320.000000 0     -3611109.265     -4773872.690      3751684.333
10 0 59633 82500.000000 0     -4216713.639     -5056928.842      2561073.872
10 0 59633 82680.000000 0     -4673837.897     -5142169.530      1276669.784
10 0 59633 82860.000000 0     -4960592.803     -5030582.370       -54515.180
10 0 59633 83040.000000 0     -5061457.021     -4730865.919     -1383703.054
10 0 59633 83220.000000 0     -4968059.053     -4258942.552     -2662186.792
10 0 59633 83400.000000 0     -4679655.972     -3637164.710     -3843164.826
10 0 59633 83580.000000 0     -4203287.747     -2893263.952     -4883483.720
10 0 59633 83760.000000 0     -3553606.774     -2059103.219     -5745219.611
10 0 59633 83940.000000 0     -2752395.395     -1169295.921     -6397038.689
10 0 59633 84120.000000 0     -1827799.955      -259758.704     -6815294.903
10 0 59633 84300.000000 0      -813315.471       633737.404     -6984835.477
10 0 59633 84480.000000 0       253431.248      1476959.057     -6899505.792
10 0 59633 84660.000000 0      1332062.226      2238505.228     -6562358.301
10 0 59633 84840.000000 0      2380960.309      2890968.613     -5985561.887
10 0 59633 85020.000000 0      3358866.276      3411928.075     -5189999.192
10 0 59633 85200.000000 0      4226503.517      3784735.893     -4204561.021
10 0 59633 85380.000000 0      4948178.370      3999075.498     -3065147.541
10 0 59633 85560.000000 0      5493286.165      4051258.713     -1813388.419
10 0 59633 85740.000000 0      5837646.335      3944245.002      -495122.302
10 0 59633 85920.000000 0      5964598.653      3687376.081       841308.735
10 0 59633 86100.000000 0      5865800.255      3295835.418      2146877.900
10 0 59633 86280.000000 0      5541675.587      2789858.049      3373725.676
10 0 59634    60.000000 0      5001494.137      2193735.607      4476959.435
10 0 59634   240.000000 0      4263073.893      1534668.830      5416314.795
10 0 59634   420.000000 0      3352141.847       841534.330      6157613.603
10 0 59634   600.000000 0      2301378.472       143624.419      6673971.311
10 0 59634   780.000000 0      1149206.420      -530578.334      6946714.737
10 0 59634   960.000000 0       -61628.343     -1154547.241      6966012.007
10 0 59634  1140.000000 0     -1285641.028     -1704741.935      6731195.150
10 0 59634  1320.000000 0     -2476299.542     -2161486.762      6250772.594
10 0 59634  1500.000000 0     -3587770.161     -2509668.639      5542143.715
10 0 59634  1680.000000 0     -4576680.687     -2739242.635      4631020.540
10 0 59634  1860.000000 0     -5403834.983     -2845523.950      3550540.925
10 0 59634  2040.000000 0     -6035801.883     -2829248.002      2340101.859
10 0 59634  2220.000000 0     -6446316.658     -2696399.476      1043945.561
10 0 59634  2400.000000 0     -6617423.212     -2457813.559      -290468.271
10 0 59634  2580.000000 0     -6540287.013     -2128560.017     -1614236.093
10 0 59634  2760.000000 0     -6215631.017     -1727143.182     -2878853.382
10 0 59634  2940.000000 0     -5653767.823     -1274561.362     -4038036.482
10 0 59634  3120.000000 0     -4874235.333      -793276.697     -5049442.967
10 0 59634  3300.000000 0     -3905058.721      -306148.217     -5876220.351
10 0 59634  3480.000000 0     -2781678.898       164617.575     -6488322.600
10 0 59634  3660.000000 0     -1545608.073       598447.956     -6863553.319
10 0 59634  3840.000000 0      -242873.455       977274.757     -6988319.256
10 0 59634  4020.000000 0      1077691.446      1286267.527     -6858083.548
10 0 59634  4200.000000 0      2366256.105      1514404.667     -6477524.664
10 0 59634  4380.000000 0      3573860.200      1654867.986     -5860389.312
10 0 59634  4560.000000 0      4654270.892      1705244.471     -5029032.977
10 0 59634  4740.000000 0      5565771.230      1667530.158     -4013662.927
10 0 59634  4920.000000 0      6272816.748      1547935.047     -2851286.218
10 0 59634  5100.000000 0      6747483.919      1356493.079     -1584388.294
10 0 59634  5280.000000 0      6970641.964      1106493.503      -259377.135
10 0 59634  5460.000000 0      6932774.420       813757.010      1075150.539
10 0 59634  5640.000000 0      6634403.650       495795.963      2370239.753
10 0 59634  5820.000000 0      6086097.016       170899.769      3578427.210
10 0 59634  6000.000000 0      5308047.427      -142804.190      4655521.287
10 0 59634  6180.000000 0      4329262.822      -428260.834      5562230.553
10 0 59634  6360.000000 0      3186412.591      -670326.350      6265581.847
10 0 59634  6540.000000 0      1922392.922      -856493.362      6740076.259
10 0 59634  6720.000000 0       584683.518      -977474.724      6968562.442
10 0 59634  6900.000000 0      -776447.101     -1027625.662      6942810.617
10 0 59634  7080.000000 0     -2109819.189     -1005188.771      6663776.860
10 0 59634  7260.000000 0     -3365241.749      -912354.103      6141565.097
10 0 59634  7440.000000 0     -4495385.652      -755132.570      5395093.098
10 0 59634  7620.000000 0     -5457580.005      -543049.833      4451457.052
10 0 59634  7800.000000 0     -6215460.032      -288668.759      3344994.558
10 0 59634  7980.000000 0     -6740394.910        -6957.530      2116071.135
10 0 59634  8160.000000 0     -7012637.167       285471.049       809624.051
10 0 59634  8340.000000 0     -7022128.685       571212.101      -526496.977
10 0 59634  8520.000000 0     -6768909.575       832970.765     -1843322.693
10 0 59634  8700.000000 0     -6263105.189      1054466.252     -3092605.850
10 0 59634  8880.000000 0     -5524497.996      1221291.130     -4228633.815
10 0 59634  9060.000000 0     -4581695.271      1321679.397     -5209928.594
10 0 59634  9240.000000 0     -3470951.683      1347143.256     -6000754.469
10 0 59634  9420.000000 0     -2234715.937      1292949.596     -6572385.425
10 0 59634  9600.000000 0      -919970.768      1158417.685     -6904100.464
10 0 59634  9780.000000 0       423565.048       947030.233     -6983882.883
10 0 59634  9960.000000 0      1745301.051       666353.776     -6808822.646
10 0 59634 10140.000000 0      2995661.682       327770.620     -6385223.094
10 0 59634 10320.000000 0      4127935.913       -53970.839     -5728394.561
10 0 59634 10500.000000 0      5100026.107      -461373.857     -4862142.272
10 0 59634 10680.000000 0      5876044.617      -874958.784     -3817957.902
10 0 59634 10860.000000 0      6427695.918     -1274149.115     -2633917.822
10 0 59634 11040.000000 0      6735377.045     -1638241.688     -1353316.092
99
